*******************************************************************************
 Revised: September 28, 2017           Jupiter                              599
 
 PHYSICAL DATA (updated 2018-Aug-15):
  Mass x10^24 (kg)      = 1898.13+-.19    Density (g/cm^3)       =   1.326
  Equat. radius (1 bar) = 71492+-4 km     Polar radius (km)      =  66854+-10
  Vol. Mean Radius (km) = 69911+-6        Flattening             =   0.06487
  Geometric Albedo      = 0.52            Rocky core mass (Mc/M) =  0.0261
  Sid. rot. period (III)= 9h 55m 29.71 s  Sid. rot. rate (rad/s) =  0.00017585 
  Mean solar day, hrs   = ~9.9259         
  GM (km^3/s^2)         = 126686534.911   GM 1-sigma (km^3/s^2)  =  +-1.5
  Equ. grav, ge (m/s^2) = 24.79           Pol. grav, gp (m/s^2)  =  28.34
  Vis. magnitude V(1,0) = -9.40
  Vis. mag. (opposition)= -2.70           Obliquity to orbit     =  3.13 deg
  Sidereal orbit period = 11.861982204 y  Sidereal orbit period  = 4332.589 d
  Mean daily motion     = 0.0831294 deg/d Mean orbit speed, km/s = 13.0697
  Atmos. temp. (1 bar)  = 165+-5 K        Escape speed, km/s    =  59.5           
  A_roche(ice)/Rp       =  2.76           Hill's sphere rad. Rp  = 740
                                 Perihelion   Aphelion     Mean
  Solar Constant (W/m^2)         56           46           51
  Maximum Planetary IR (W/m^2)   13.7         13.4         13.6
  Minimum Planetary IR (W/m^2)   13.7         13.4         13.6
*******************************************************************************
 
 
*******************************************************************************
Ephemeris / WWW_USER Fri Nov  9 15:33:46 2018 Pasadena, USA      / Horizons    
*******************************************************************************
Target body name: Jupiter (599)                   {source: jup341}
Center body name: Earth (399)                     {source: DE431mx}
Center-site name: GEOCENTRIC
*******************************************************************************
Start time      : A.D. 2014-Apr-12 00:00:00.0000 UT      
Stop  time      : A.D. 2014-Apr-14 00:00:00.0000 UT      
Step-size       : 5 minutes
*******************************************************************************
Target pole/equ : IAU_JUPITER                     {West-longitude positive}
Target radii    : 71492.0 x 71492.0 x 66854.0 km  {Equator, meridian, pole}    
Center geodetic : 0.00000000,0.00000000,0.0000000 {E-lon(deg),Lat(deg),Alt(km)}
Center cylindric: 0.00000000,0.00000000,0.0000000 {E-lon(deg),Dxy(km),Dz(km)}
Center pole/equ : High-precision EOP model        {East-longitude positive}
Center radii    : 6378.1 x 6378.1 x 6356.8 km     {Equator, meridian, pole}    
Target primary  : Sun
Vis. interferer : MOON (R_eq= 1737.400) km        {source: DE431mx}
Rel. light bend : Sun, EARTH                      {source: DE431mx}
Rel. lght bnd GM: 1.3271E+11, 3.9860E+05 km^3/s^2                              
Atmos refraction: NO (AIRLESS)
RA format       : DEG
Time format     : CAL 
EOP file        : eop.181108.p190130                                           
EOP coverage    : DATA-BASED 1962-JAN-20 TO 2018-NOV-08. PREDICTS-> 2019-JAN-29
Units conversion: 1 au= 149597870.700 km, c= 299792.458 km/s, 1 day= 86400.0 s 
Table cut-offs 1: Elevation (-90.0deg=NO ),Airmass (>38.000=NO), Daylight (NO )
Table cut-offs 2: Solar elongation (  0.0,180.0=NO ),Local Hour Angle( 0.0=NO )
Table cut-offs 3: RA/DEC angular rate (     0.0=NO )                           
**************************************************************************************************************************************
 Date__(UT)__HR:MN:SC.fff     R.A._(ICRF/J2K)_DEC Ang-diam Ob-lon Ob-lat Sl-lon Sl-lat   NP.ang   NP.dist            delta      deldot
**************************************************************************************************************************************
$$SOE
 2014-Apr-13 23:40:00.000     103.64123  23.13239 36.97314  73.46   1.76  62.62   1.44   6.7286     17.28 5.33213083989232  27.3902371
 2014-Apr-13 23:45:00.000     103.64165  23.13235 36.97276  76.48   1.76  65.65   1.44   6.7288     17.28 5.33218576765781  27.3899429
 2014-Apr-13 23:50:00.000     103.64208  23.13232 36.97238  79.50   1.76  68.67   1.44   6.7290     17.28 5.33224069483298  27.3896484
 2014-Apr-13 23:55:00.000     103.64250  23.13229 36.97200  82.53   1.76  71.69   1.44   6.7292     17.28 5.33229562141748  27.3893538
 2014-Apr-14 00:00:00.000     103.64293  23.13225 36.97162  85.55   1.76  74.71   1.44   6.7294     17.28 5.33235054741093  27.3890590
